1 86077U          19328.58958333  .00000000  00000-0  00000-0 0 00000
2 86077 097.6660 165.8640 0000000 000.0000 005.5720 15.01914300000000
1 86077U          19328.83333333  .00000000  00000-0  00000-0 0 00000
2 86077 097.6660 166.1040 0000000 000.0000 241.8220 15.01914300000000
1 86077U          19329.14583333  .00000000  00000-0  00000-0 0 00000
2 86077 097.6650 166.4120 0000000 000.0000 129.3220 15.01914300000000
1 86077U          19329.56666667  .00000000  00000-0  00000-0 0 00000
2 86077 097.6640 166.8270 0000000 000.0000 241.8230 15.01914300000000
1 86077U          19329.96597222  .00000000  00000-0  00000-0 0 00000
2 86077 097.6630 167.2200 0000000 000.0000 238.0730 15.01914300000000
1 86077U          19330.23125000  .00000000  00000-0  00000-0 0 00000
2 86077 097.6630 167.4820 0000000 000.0000 230.5730 15.01914300000000
1 86077U          19330.48125000  .00000000  00000-0  00000-0 0 00000
2 86077 097.6630 167.7280 0000000 000.0000 140.5730 15.01914300000000
1 86077U          19330.85347222  .00000000  00000-0  00000-0 0 00000
2 86077 097.6620 168.0950 0000000 000.0000 350.5730 15.01914300000000
1 86077U          19331.16805556  .00000000  00000-0  00000-0 0 00000
2 86077 097.6610 168.4050 0000000 000.0000 249.3230 15.01914300000000
1 86077U          19331.57847222  .00000000  00000-0  00000-0 0 00000
2 86077 097.6610 168.8100 0000000 000.0000 305.5730 15.01914300000000
1 86077U          19331.94791667  .00000000  00000-0  00000-0 0 00000
2 86077 097.6600 169.1740 0000000 000.0000 140.5730 15.01914300000000
1 86077U          19332.23750000  .00000000  00000-0  00000-0 0 00000
2 86077 097.6590 169.4590 0000000 000.0000 264.3240 15.01914300000000
1 86077U          19332.57361111  .00000000  00000-0  00000-0 0 00000
2 86077 097.6590 169.7910 0000000 000.0000 279.3240 15.01914300000000
1 86077U          19332.89583333  .00000000  00000-0  00000-0 0 00000
2 86077 097.6580 170.1080 0000000 000.0000 219.3240 15.01914300000000
